[{"OBJECT_NAME":"STARLINK-1797","OBJECT_ID":"2020-073AE","EPOCH":"2026-03-10T00:00:02.999808","MEAN_MOTION":15.54694059,"ECCENTRICITY":0.00036796,"INCLINATION":53.0441,"RA_OF_ASC_NODE":207.3106,"ARG_OF_PERICENTER":56.3273,"MEAN_ANOMALY":238.374,"EPHEMERIS_TYPE":0,"CLASSIFICATION_TYPE":"U","NORAD_CAT_ID":46698,"ELEMENT_SET_NO":999,"REV_AT_EPOCH":586,"BSTAR":0.0015545741,"MEAN_MOTION_DOT":0.0010587,"MEAN_MOTION_DDOT":0},{"OBJECT_NAME":"COSMOS 1508","OBJECT_ID":"1983-111A","EPOCH":"2026-03-09T22:22:21.745632","MEAN_MOTION":14.06848646,"ECCENTRICITY":0.0674497,"INCLINATION":82.894,"RA_OF_ASC_NODE":328.7406,"ARG_OF_PERICENTER":35.1384,"MEAN_ANOMALY":329.2394,"EPHEMERIS_TYPE":0,"CLASSIFICATION_TYPE":"U","NORAD_CAT_ID":14483,"ELEMENT_SET_NO":999,"REV_AT_EPOCH":10737,"BSTAR":0.00039602262,"MEAN_MOTION_DOT":6.193e-5,"MEAN_MOTION_DDOT":0}]
